STARLINK-30409          
1 57820U 23138N   26068.49726037  .00001177  00000+0  53563-4 0  9990
2 57820  42.9995 234.8360 0001012 276.7860  83.2876 15.26737941138650
XCUBE-1                 
1 62400U 24247Z   26068.48297321  .00009773  00000+0  36224-3 0  9994
2 62400  44.9938 117.7807 0005235 331.1499  28.9094 15.27910558 67702
